ONEWEB-0597             
1 54663U 22166X   24247.61611433 -.00000299  00000+0 -75550-3 0  9991
2 54663  87.9347  13.7013 0001633  89.1580 270.9741 13.21824412 85464
ONEWEB-0600             
1 54664U 22166Y   24247.59876889 -.00000251  00000+0 -64007-3 0  9990
2 54664  87.9343  13.7407 0001653  95.0156 265.1167 13.21824261 85432
ONEWEB-0601             
1 54665U 22166Z   24247.59090731 -.00000095  00000+0 -26052-3 0  9999
2 54665  87.9351  13.7124 0001874  82.4385 277.6962 13.21825941 85625
ONEWEB-0602             
1 54666U 22166AA  24247.63190532  .00000022  00000+0  21316-4 0  9992
2 54666  87.9351  13.7073 0001723  86.8322 273.3009 13.21825525 85477
ONEWEB-0603             
1 54667U 22166AB  24247.63662130  .00000017  00000+0  91403-5 0  9990
2 54667  87.9353  13.7094 0001738  85.5348 274.5984 13.21822971 85403
ONEWEB-0604             
1 54668U 22166AC  24247.62399656 -.00000335  00000+0 -84204-3 0  9994
2 54668  87.9345  13.6858 0001508 101.1029 259.0275 13.21824606 85361
ONEWEB-0605             
1 54669U 22166AD  24247.61769328 -.00000689  00000+0 -16998-2 0  9997
2 54669  87.9343  13.7194 0002148  80.8556 279.2821 13.21826830 85433
ONEWEB-0606             
1 54670U 22166AE  24247.63979313  .00000138  00000+0  30200-3 0  9998
2 54670  87.9349  13.7096 0001901 102.7634 257.3712 13.21826241 85497
