<?xml version="1.0" encoding="UTF-8"?>
<ndm xmlns:xsi="http://www.w3.org/2001/XMLSchema-instance" xsi:noNamespaceSchemaLocation="https://sanaregistry.org/r/ndmxml_unqualified/ndmxml-2.0.0-master-2.0.xsd">
<omm id="CCSDS_OMM_VERS" version="2.0">
<header><CREATION_DATE/><ORIGINATOR/></header><body><segment><metadata><OBJECT_NAME>ONEWEB-0597</OBJECT_NAME><OBJECT_ID>2022-166X</OBJECT_ID><CENTER_NAME>EARTH</CENTER_NAME><REF_FRAME>TEME</REF_FRAME><TIME_SYSTEM>UTC</TIME_SYSTEM><MEAN_ELEMENT_THEORY>SGP4</MEAN_ELEMENT_THEORY></metadata><data><meanElements><EPOCH>2024-09-03T14:47:12.278112</EPOCH><MEAN_MOTION>13.21824412</MEAN_MOTION><ECCENTRICITY>.0001633</ECCENTRICITY><INCLINATION>87.9347</INCLINATION><RA_OF_ASC_NODE>13.7013</RA_OF_ASC_NODE><ARG_OF_PERICENTER>89.1580</ARG_OF_PERICENTER><MEAN_ANOMALY>270.9741</MEAN_ANOMALY></meanElements><tleParameters><EPHEMERIS_TYPE>0</EPHEMERIS_TYPE><CLASSIFICATION_TYPE>U</CLASSIFICATION_TYPE><NORAD_CAT_ID>54663</NORAD_CAT_ID><ELEMENT_SET_NO>999</ELEMENT_SET_NO><REV_AT_EPOCH>8546</REV_AT_EPOCH><BSTAR>-.7555E-3</BSTAR><MEAN_MOTION_DOT>-.299E-5</MEAN_MOTION_DOT><MEAN_MOTION_DDOT>0</MEAN_MOTION_DDOT></tleParameters></data></segment></body></omm>
<omm id="CCSDS_OMM_VERS" version="2.0">
<header><CREATION_DATE/><ORIGINATOR/></header><body><segment><metadata><OBJECT_NAME>ONEWEB-0600</OBJECT_NAME><OBJECT_ID>2022-166Y</OBJECT_ID><CENTER_NAME>EARTH</CENTER_NAME><REF_FRAME>TEME</REF_FRAME><TIME_SYSTEM>UTC</TIME_SYSTEM><MEAN_ELEMENT_THEORY>SGP4</MEAN_ELEMENT_THEORY></metadata><data><meanElements><EPOCH>2024-09-03T14:22:13.632096</EPOCH><MEAN_MOTION>13.21824261</MEAN_MOTION><ECCENTRICITY>.0001653</ECCENTRICITY><INCLINATION>87.9343</INCLINATION><RA_OF_ASC_NODE>13.7407</RA_OF_ASC_NODE><ARG_OF_PERICENTER>95.0156</ARG_OF_PERICENTER><MEAN_ANOMALY>265.1167</MEAN_ANOMALY></meanElements><tleParameters><EPHEMERIS_TYPE>0</EPHEMERIS_TYPE><CLASSIFICATION_TYPE>U</CLASSIFICATION_TYPE><NORAD_CAT_ID>54664</NORAD_CAT_ID><ELEMENT_SET_NO>999</ELEMENT_SET_NO><REV_AT_EPOCH>8543</REV_AT_EPOCH><BSTAR>-.64007E-3</BSTAR><MEAN_MOTION_DOT>-.251E-5</MEAN_MOTION_DOT><MEAN_MOTION_DDOT>0</MEAN_MOTION_DDOT></tleParameters></data></segment></body></omm>
<omm id="CCSDS_OMM_VERS" version="2.0">
<header><CREATION_DATE/><ORIGINATOR/></header><body><segment><metadata><OBJECT_NAME>ONEWEB-0601</OBJECT_NAME><OBJECT_ID>2022-166Z</OBJECT_ID><CENTER_NAME>EARTH</CENTER_NAME><REF_FRAME>TEME</REF_FRAME><TIME_SYSTEM>UTC</TIME_SYSTEM><MEAN_ELEMENT_THEORY>SGP4</MEAN_ELEMENT_THEORY></metadata><data><meanElements><EPOCH>2024-09-03T14:10:54.391584</EPOCH><MEAN_MOTION>13.21825941</MEAN_MOTION><ECCENTRICITY>.0001874</ECCENTRICITY><INCLINATION>87.9351</INCLINATION><RA_OF_ASC_NODE>13.7124</RA_OF_ASC_NODE><ARG_OF_PERICENTER>82.4385</ARG_OF_PERICENTER><MEAN_ANOMALY>277.6962</MEAN_ANOMALY></meanElements><tleParameters><EPHEMERIS_TYPE>0</EPHEMERIS_TYPE><CLASSIFICATION_TYPE>U</CLASSIFICATION_TYPE><NORAD_CAT_ID>54665</NORAD_CAT_ID><ELEMENT_SET_NO>999</ELEMENT_SET_NO><REV_AT_EPOCH>8562</REV_AT_EPOCH><BSTAR>-.26052E-3</BSTAR><MEAN_MOTION_DOT>-.95E-6</MEAN_MOTION_DOT><MEAN_MOTION_DDOT>0</MEAN_MOTION_DDOT></tleParameters></data></segment></body></omm>
<omm id="CCSDS_OMM_VERS" version="2.0">
<header><CREATION_DATE/><ORIGINATOR/></header><body><segment><metadata><OBJECT_NAME>ONEWEB-0602</OBJECT_NAME><OBJECT_ID>2022-166AA</OBJECT_ID><CENTER_NAME>EARTH</CENTER_NAME><REF_FRAME>TEME</REF_FRAME><TIME_SYSTEM>UTC</TIME_SYSTEM><MEAN_ELEMENT_THEORY>SGP4</MEAN_ELEMENT_THEORY></metadata><data><meanElements><EPOCH>2024-09-03T15:09:56.619648</EPOCH><MEAN_MOTION>13.21825525</MEAN_MOTION><ECCENTRICITY>.0001723</ECCENTRICITY><INCLINATION>87.9351</INCLINATION><RA_OF_ASC_NODE>13.7073</RA_OF_ASC_NODE><ARG_OF_PERICENTER>86.8322</ARG_OF_PERICENTER><MEAN_ANOMALY>273.3009</MEAN_ANOMALY></meanElements><tleParameters><EPHEMERIS_TYPE>0</EPHEMERIS_TYPE><CLASSIFICATION_TYPE>U</CLASSIFICATION_TYPE><NORAD_CAT_ID>54666</NORAD_CAT_ID><ELEMENT_SET_NO>999</ELEMENT_SET_NO><REV_AT_EPOCH>8547</REV_AT_EPOCH><BSTAR>.21316E-4</BSTAR><MEAN_MOTION_DOT>.22E-6</MEAN_MOTION_DOT><MEAN_MOTION_DDOT>0</MEAN_MOTION_DDOT></tleParameters></data></segment></body></omm>
<omm id="CCSDS_OMM_VERS" version="2.0">
<header><CREATION_DATE/><ORIGINATOR/></header><body><segment><metadata><OBJECT_NAME>ONEWEB-0603</OBJECT_NAME><OBJECT_ID>2022-166AB</OBJECT_ID><CENTER_NAME>EARTH</CENTER_NAME><REF_FRAME>TEME</REF_FRAME><TIME_SYSTEM>UTC</TIME_SYSTEM><MEAN_ELEMENT_THEORY>SGP4</MEAN_ELEMENT_THEORY></metadata><data><meanElements><EPOCH>2024-09-03T15:16:44.080320</EPOCH><MEAN_MOTION>13.21822971</MEAN_MOTION><ECCENTRICITY>.0001738</ECCENTRICITY><INCLINATION>87.9353</INCLINATION><RA_OF_ASC_NODE>13.7094</RA_OF_ASC_NODE><ARG_OF_PERICENTER>85.5348</ARG_OF_PERICENTER><MEAN_ANOMALY>274.5984</MEAN_ANOMALY></meanElements><tleParameters><EPHEMERIS_TYPE>0</EPHEMERIS_TYPE><CLASSIFICATION_TYPE>U</CLASSIFICATION_TYPE><NORAD_CAT_ID>54667</NORAD_CAT_ID><ELEMENT_SET_NO>999</ELEMENT_SET_NO><REV_AT_EPOCH>8540</REV_AT_EPOCH><BSTAR>.91403E-5</BSTAR><MEAN_MOTION_DOT>.17E-6</MEAN_MOTION_DOT><MEAN_MOTION_DDOT>0</MEAN_MOTION_DDOT></tleParameters></data></segment></body></omm>
<omm id="CCSDS_OMM_VERS" version="2.0">
<header><CREATION_DATE/><ORIGINATOR/></header><body><segment><metadata><OBJECT_NAME>ONEWEB-0604</OBJECT_NAME><OBJECT_ID>2022-166AC</OBJECT_ID><CENTER_NAME>EARTH</CENTER_NAME><REF_FRAME>TEME</REF_FRAME><TIME_SYSTEM>UTC</TIME_SYSTEM><MEAN_ELEMENT_THEORY>SGP4</MEAN_ELEMENT_THEORY></metadata><data><meanElements><EPOCH>2024-09-03T14:58:33.302784</EPOCH><MEAN_MOTION>13.21824606</MEAN_MOTION><ECCENTRICITY>.0001508</ECCENTRICITY><INCLINATION>87.9345</INCLINATION><RA_OF_ASC_NODE>13.6858</RA_OF_ASC_NODE><ARG_OF_PERICENTER>101.1029</ARG_OF_PERICENTER><MEAN_ANOMALY>259.0275</MEAN_ANOMALY></meanElements><tleParameters><EPHEMERIS_TYPE>0</EPHEMERIS_TYPE><CLASSIFICATION_TYPE>U</CLASSIFICATION_TYPE><NORAD_CAT_ID>54668</NORAD_CAT_ID><ELEMENT_SET_NO>999</ELEMENT_SET_NO><REV_AT_EPOCH>8536</REV_AT_EPOCH><BSTAR>-.84204E-3</BSTAR><MEAN_MOTION_DOT>-.335E-5</MEAN_MOTION_DOT><MEAN_MOTION_DDOT>0</MEAN_MOTION_DDOT></tleParameters></data></segment></body></omm>
<omm id="CCSDS_OMM_VERS" version="2.0">
<header><CREATION_DATE/><ORIGINATOR/></header><body><segment><metadata><OBJECT_NAME>ONEWEB-0605</OBJECT_NAME><OBJECT_ID>2022-166AD</OBJECT_ID><CENTER_NAME>EARTH</CENTER_NAME><REF_FRAME>TEME</REF_FRAME><TIME_SYSTEM>UTC</TIME_SYSTEM><MEAN_ELEMENT_THEORY>SGP4</MEAN_ELEMENT_THEORY></metadata><data><meanElements><EPOCH>2024-09-03T14:49:28.699392</EPOCH><MEAN_MOTION>13.21826830</MEAN_MOTION><ECCENTRICITY>.0002148</ECCENTRICITY><INCLINATION>87.9343</INCLINATION><RA_OF_ASC_NODE>13.7194</RA_OF_ASC_NODE><ARG_OF_PERICENTER>80.8556</ARG_OF_PERICENTER><MEAN_ANOMALY>279.2821</MEAN_ANOMALY></meanElements><tleParameters><EPHEMERIS_TYPE>0</EPHEMERIS_TYPE><CLASSIFICATION_TYPE>U</CLASSIFICATION_TYPE><NORAD_CAT_ID>54669</NORAD_CAT_ID><ELEMENT_SET_NO>999</ELEMENT_SET_NO><REV_AT_EPOCH>8543</REV_AT_EPOCH><BSTAR>-.16998E-2</BSTAR><MEAN_MOTION_DOT>-.689E-5</MEAN_MOTION_DOT><MEAN_MOTION_DDOT>0</MEAN_MOTION_DDOT></tleParameters></data></segment></body></omm>
<omm id="CCSDS_OMM_VERS" version="2.0">
<header><CREATION_DATE/><ORIGINATOR/></header><body><segment><metadata><OBJECT_NAME>ONEWEB-0606</OBJECT_NAME><OBJECT_ID>2022-166AE</OBJECT_ID><CENTER_NAME>EARTH</CENTER_NAME><REF_FRAME>TEME</REF_FRAME><TIME_SYSTEM>UTC</TIME_SYSTEM><MEAN_ELEMENT_THEORY>SGP4</MEAN_ELEMENT_THEORY></metadata><data><meanElements><EPOCH>2024-09-03T15:21:18.126432</EPOCH><MEAN_MOTION>13.21826241</MEAN_MOTION><ECCENTRICITY>.0001901</ECCENTRICITY><INCLINATION>87.9349</INCLINATION><RA_OF_ASC_NODE>13.7096</RA_OF_ASC_NODE><ARG_OF_PERICENTER>102.7634</ARG_OF_PERICENTER><MEAN_ANOMALY>257.3712</MEAN_ANOMALY></meanElements><tleParameters><EPHEMERIS_TYPE>0</EPHEMERIS_TYPE><CLASSIFICATION_TYPE>U</CLASSIFICATION_TYPE><NORAD_CAT_ID>54670</NORAD_CAT_ID><ELEMENT_SET_NO>999</ELEMENT_SET_NO><REV_AT_EPOCH>8549</REV_AT_EPOCH><BSTAR>.302E-3</BSTAR><MEAN_MOTION_DOT>.138E-5</MEAN_MOTION_DOT><MEAN_MOTION_DDOT>0</MEAN_MOTION_DDOT></tleParameters></data></segment></body></omm>

</ndm>
